{"type": "FeatureCollection", "features": [ {"type": "Feature", "properties": {"norad_id": 65943, "name": "E-KAGAKU-1", "group": "stations", "lat": 21.13030895069962, "lon": 174.9906501349351, "alt_km": 390.7621592898786, "timestamp": "2025-12-09T07:41:31.989746+00:00", "meta": {"OBJECT_NAME": "E-KAGAKU-1", "OBJECT_ID": "1998-067XQ", "EPOCH": "2025-12-08T17:43:35.861664", "MEAN_MOTION": 15.58651727, "ECCENTRICITY": 0.00029774, "INCLINATION": 51.6297, "RA_OF_ASC_NODE": 160.0822, "ARG_OF_PERICENTER": 178.8942, "MEAN_ANOMALY": 181.2057, "EPHEMERIS_TYPE": 0, "CLASSIFICATION_TYPE": "U", "NORAD_CAT_ID": 65943, "ELEMENT_SET_NO": 999, "REV_AT_EPOCH": 923, "BSTAR": 0.00085624806, "MEAN_MOTION_DOT": 0.00067115, "MEAN_MOTION_DDOT": 0}, "tle": {"line1": "1 65943U 98067XQ  25342.73860951  .00067115  00000+0  85625-3 0  9990", "line2": "2 65943  51.6297 160.0822 0002977 178.8942 181.2057 15.58651727  9237"}}, "geometry": {"type": "Point", "coordinates": [174.9906501349351, 21.13030895069962]}}, {"type": "Feature", "properties": {"norad_id": 66052, "name": "HRC MONOBLOCK CAMERA", "group": "stations", "lat": 49.28153102999042, "lon": -134.43769572301707, "alt_km": 399.1361123569104, "timestamp": "2025-12-09T07:41:31.989757+00:00", "meta": {"OBJECT_NAME": "HRC MONOBLOCK CAMERA", "OBJECT_ID": "1998-067XR", "EPOCH": "2025-12-08T22:06:29.067264", "MEAN_MOTION": 15.53741762, "ECCENTRICITY": 0.00038647, "INCLINATION": 51.6287, "RA_OF_ASC_NODE": 160.5417, "ARG_OF_PERICENTER": 168.2294, "MEAN_ANOMALY": 191.8787, "EPHEMERIS_TYPE": 0, "CLASSIFICATION_TYPE": "U", "NORAD_CAT_ID": 66052, "ELEMENT_SET_NO": 999, "REV_AT_EPOCH": 824, "BSTAR": 0.00062683821, "MEAN_MOTION_DOT": 0.00040654, "MEAN_MOTION_DDOT": 0}, "tle": {"line1": "1 66052U 98067XR  25342.92116976  .00040654  00000+0  62684-3 0  9993", "line2": "2 66052  51.6287 160.5417 0003864 168.2294 191.8787 15.53741762  8243"}}, "geometry": {"type": "Point", "coordinates": [-134.43769572301707, 49.28153102999042]}}, {"type": "Feature", "properties": {"norad_id": 66174, "name": "HTV-X1", "group": "stations", "lat": 17.963447992856015, "lon": 174.29289432725588, "alt_km": 418.6407567732467, "timestamp": "2025-12-09T07:41:31.989767+00:00", "meta": {"OBJECT_NAME": "HTV-X1", "OBJECT_ID": "2025-241A", "EPOCH": "2025-12-08T20:45:25.501536", "MEAN_MOTION": 15.49428834, "ECCENTRICITY": 0.00033811, "INCLINATION": 51.6308, "RA_OF_ASC_NODE": 161.6653, "ARG_OF_PERICENTER": 221.9847, "MEAN_ANOMALY": 138.0883, "EPHEMERIS_TYPE": 0, "CLASSIFICATION_TYPE": "U", "NORAD_CAT_ID": 66174, "ELEMENT_SET_NO": 999, "REV_AT_EPOCH": 51, "BSTAR": 0.00022803662, "MEAN_MOTION_DOT": 0.00012323, "MEAN_MOTION_DDOT": 0}, "tle": {"line1": "1 66174U 25241A   25342.86487849  .00012323  00000+0  22804-3 0  9997", "line2": "2 66174  51.6308 161.6653 0003381 221.9847 138.0883 15.49428834   510"}}, "geometry": {"type": "Point", "coordinates": [174.29289432725588, 17.963447992856015]}}, {"type": "Feature", "properties": {"norad_id": 66515, "name": "SZ-21 MODULE", "group": "stations", "lat": -31.855446285904378, "lon": -98.40089158792976, "alt_km": 379.7211081459154, "timestamp": "2025-12-09T07:41:31.989777+00:00", "meta": {"OBJECT_NAME": "SZ-21 MODULE", "OBJECT_ID": "2025-246C", "EPOCH": "2025-12-08T12:17:19.006656", "MEAN_MOTION": 15.62178331, "ECCENTRICITY": 0.00062383, "INCLINATION": 41.4773, "RA_OF_ASC_NODE": 41.8306, "ARG_OF_PERICENTER": 236.9164, "MEAN_ANOMALY": 123.1077, "EPHEMERIS_TYPE": 0, "CLASSIFICATION_TYPE": "U", "NORAD_CAT_ID": 66515, "ELEMENT_SET_NO": 999, "REV_AT_EPOCH": 378, "BSTAR": 0.00033876447, "MEAN_MOTION_DOT": 0.00030446, "MEAN_MOTION_DDOT": 0}, "tle": {"line1": "1 66515U 25246C   25342.51202554  .00030446  00000+0  33876-3 0  9998", "line2": "2 66515  41.4773  41.8306 0006238 236.9164 123.1077 15.62178331  3789"}}, "geometry": {"type": "Point", "coordinates": [-98.40089158792976, -31.855446285904378]}}, {"type": "Feature", "properties": {"norad_id": 66645, "name": "SHENZHOU-22", "group": "stations", "lat": 3.335071536765812, "lon": 41.2451084546303, "alt_km": 383.6957793694737, "timestamp": "2025-12-09T07:41:31.989787+00:00", "meta": {"OBJECT_NAME": "SHENZHOU-22", "OBJECT_ID": "2025-272A", "EPOCH": "2025-12-08T14:45:28.776096", "MEAN_MOTION": 15.58905517, "ECCENTRICITY": 0.00091311, "INCLINATION": 41.4682, "RA_OF_ASC_NODE": 41.7451, "ARG_OF_PERICENTER": 357.4459, "MEAN_ANOMALY": 2.6332, "EPHEMERIS_TYPE": 0, "CLASSIFICATION_TYPE": "U", "NORAD_CAT_ID": 66645, "ELEMENT_SET_NO": 999, "REV_AT_EPOCH": 26300, "BSTAR": 0.0003572809, "MEAN_MOTION_DOT": 0.0002832, "MEAN_MOTION_DDOT": 0}, "tle": {"line1": "1 66645U 25272A   25342.61491639  .00028320  00000+0  35728-3 0  9992", "line2": "2 66645  41.4682  41.7451 0009131 357.4459   2.6332 15.58905517263000"}}, "geometry": {"type": "Point", "coordinates": [41.2451084546303, 3.335071536765812]}}, {"type": "Feature", "properties": {"norad_id": 66664, "name": "SOYUZ-MS 28", "group": "stations", "lat": 17.963449803803446, "lon": 174.292895965782, "alt_km": 418.6407565218451, "timestamp": "2025-12-09T07:41:31.989804+00:00", "meta": {"OBJECT_NAME": "SOYUZ-MS 28", "OBJECT_ID": "2025-275A", "EPOCH": "2025-12-08T20:45:25.501536", "MEAN_MOTION": 15.49428834, "ECCENTRICITY": 0.00033811, "INCLINATION": 51.6308, "RA_OF_ASC_NODE": 161.6653, "ARG_OF_PERICENTER": 221.9847, "MEAN_ANOMALY": 138.0883, "EPHEMERIS_TYPE": 0, "CLASSIFICATION_TYPE": "U", "NORAD_CAT_ID": 66664, "ELEMENT_SET_NO": 999, "REV_AT_EPOCH": 128, "BSTAR": 0.00022803662, "MEAN_MOTION_DOT": 0.00012323, "MEAN_MOTION_DDOT": 0}, "tle": {"line1": "1 66664U 25275A   25342.86487849  .00012323  00000+0  22804-3 0  9998", "line2": "2 66664  51.6308 161.6653 0003381 221.9847 138.0883 15.49428834  1289"}}, "geometry": {"type": "Point", "coordinates": [174.292895965782, 17.963449803803446]}}, {"type": "Feature", "properties": {"norad_id": 66906, "name": "1998-067XS", "group": "stations", "lat": 31.022073169721942, "lon": -172.17221072613154, "alt_km": 414.14502338193233, "timestamp": "2025-12-09T07:41:31.989815+00:00", "meta": {"OBJECT_NAME": "1998-067XS", "OBJECT_ID": "1998-067XS", "EPOCH": "2025-12-08T22:13:59.029824", "MEAN_MOTION": 15.50272351, "ECCENTRICITY": 0.00040207, "INCLINATION": 51.6297, "RA_OF_ASC_NODE": 161.3264, "ARG_OF_PERICENTER": 185.5281, "MEAN_ANOMALY": 174.5664, "EPHEMERIS_TYPE": 0, "CLASSIFICATION_TYPE": "U", "NORAD_CAT_ID": 66906, "ELEMENT_SET_NO": 999, "REV_AT_EPOCH": 102, "BSTAR": 0.00053799922, "MEAN_MOTION_DOT": 0.0003067, "MEAN_MOTION_DDOT": 0}, "tle": {"line1": "1 66906U 98067XS  25342.92637766  .00030670  00000+0  53800-3 0  9993", "line2": "2 66906  51.6297 161.3264 0004020 185.5281 174.5664 15.50272351  1025"}}, "geometry": {"type": "Point", "coordinates": [-172.17221072613154, 31.022073169721942]}}, {"type": "Feature", "properties": {"norad_id": 66907, "name": "1998-067XT", "group": "stations", "lat": 35.40757345399406, "lon": -166.36400911134348, "alt_km": 412.735395515092, "timestamp": "2025-12-09T07:41:31.989826+00:00", "meta": {"OBJECT_NAME": "1998-067XT", "OBJECT_ID": "1998-067XT", "EPOCH": "2025-12-08T19:06:53.694720", "MEAN_MOTION": 15.50762002, "ECCENTRICITY": 0.00049716, "INCLINATION": 51.6302, "RA_OF_ASC_NODE": 161.9586, "ARG_OF_PERICENTER": 204.3216, "MEAN_ANOMALY": 155.7539, "EPHEMERIS_TYPE": 0, "CLASSIFICATION_TYPE": "U", "NORAD_CAT_ID": 66907, "ELEMENT_SET_NO": 999, "REV_AT_EPOCH": 100, "BSTAR": 0.0012614232, "MEAN_MOTION_DOT": 0.00074227, "MEAN_MOTION_DDOT": 0}, "tle": {"line1": "1 66907U 98067XT  25342.79645480  .00074227  00000+0  12614-2 0  9994", "line2": "2 66907  51.6302 161.9586 0004971 204.3216 155.7539 15.50762002  1006"}}, "geometry": {"type": "Point", "coordinates": [-166.36400911134348, 35.40757345399406]}}, {"type": "Feature", "properties": {"norad_id": 66908, "name": "1998-067XU", "group": "stations", "lat": 36.110680402048985, "lon": -165.33527861645183, "alt_km": 412.59824609340376, "timestamp": "2025-12-09T07:41:31.989838+00:00", "meta": {"OBJECT_NAME": "1998-067XU", "OBJECT_ID": "1998-067XU", "EPOCH": "2025-12-08T22:12:12.981600", "MEAN_MOTION": 15.50818267, "ECCENTRICITY": 0.00051673, "INCLINATION": 51.6297, "RA_OF_ASC_NODE": 161.3178, "ARG_OF_PERICENTER": 203.3313, "MEAN_ANOMALY": 156.7442, "EPHEMERIS_TYPE": 0, "CLASSIFICATION_TYPE": "U", "NORAD_CAT_ID": 66908, "ELEMENT_SET_NO": 999, "REV_AT_EPOCH": 102, "BSTAR": 0.0011183297, "MEAN_MOTION_DOT": 0.00065818, "MEAN_MOTION_DDOT": 0}, "tle": {"line1": "1 66908U 98067XU  25342.92515025  .00065818  00000+0  11183-2 0  9997", "line2": "2 66908  51.6297 161.3178 0005167 203.3313 156.7442 15.50818267  1027"}}, "geometry": {"type": "Point", "coordinates": [-165.33527861645183, 36.110680402048985]}}, {"type": "Feature", "properties": {"norad_id": 66909, "name": "SILVERSAT", "group": "stations", "lat": 36.65192071085842, "lon": -164.52239645378026, "alt_km": 412.142325184177, "timestamp": "2025-12-09T07:41:31.989851+00:00", "meta": {"OBJECT_NAME": "SILVERSAT", "OBJECT_ID": "1998-067XV", "EPOCH": "2025-12-08T17:33:40.093920", "MEAN_MOTION": 15.50878297, "ECCENTRICITY": 0.0005012, "INCLINATION": 51.6297, "RA_OF_ASC_NODE": 162.2763, "ARG_OF_PERICENTER": 204.4469, "MEAN_ANOMALY": 155.6283, "EPHEMERIS_TYPE": 0, "CLASSIFICATION_TYPE": "U", "NORAD_CAT_ID": 66909, "ELEMENT_SET_NO": 999, "REV_AT_EPOCH": 99, "BSTAR": 0.0013404205, "MEAN_MOTION_DOT": 0.00079284, "MEAN_MOTION_DDOT": 0}, "tle": {"line1": "1 66909U 98067XV  25342.73171405  .00079284  00000+0  13404-2 0  9997", "line2": "2 66909  51.6297 162.2763 0005012 204.4469 155.6283 15.50878297   996"}}, "geometry": {"type": "Point", "coordinates": [-164.52239645378026, 36.65192071085842]}}]}